NORAD_CAT_ID,OBJECT_NAME,OBJECT_TYPE,EPOCH,MEAN_MOTION,ECCENTRICITY,INCLINATION,RA_OF_ASC_NODE,ARG_OF_PERICENTER,MEAN_ANOMALY,BSTAR,MEAN_MOTION_DOT,MEAN_MOTION_DDOT,TLE_LINE0,TLE_LINE1,TLE_LINE2,SEMIMAJOR_AXIS,PERIOD,APOGEE,PERIGEE,DECAYED
49416.0,STARLINK-3133,PAYLOAD,2022-10-08 09:56:16,15.08842126,0.0001716,53.2165,72.8395,53.162,306.9529,6.4917e-05,7.45e-06,0.0,0 STARLINK-3133,1 49416U 21104J   22281.41407688  .00000745  00000-0  64917-4 0  9992,2 49416  53.2165  72.8395 0001716  53.1620 306.9529 15.08842126 50189,6917.874,95.437,540.9259999999998,538.552,0.0
49416.0,STARLINK-3133,PAYLOAD,2022-10-08 16:17:47,15.08909898,0.0001861,53.2174,71.6499,38.9206,321.192,-0.0010574999999999,-0.00017111,0.0,0 STARLINK-3133,1 49416U 21104J   22281.67902677 -.00017111  00000-0 -10575-2 0  9994,2 49416  53.2174  71.6499 0001861  38.9206 321.1920 15.08909898 50222,6917.667,95.433,540.819,538.244,0.0
49416.0,STARLINK-3133,PAYLOAD,2022-10-09 03:25:31,15.08835607,0.0001748,53.2177,69.5688,51.777,308.3379,6.8945e-05,8.09e-06,0.0,0 STARLINK-3133,1 49416U 21104J   22282.14272484  .00000809  00000-0  68945-4 0  9993,2 49416  53.2177  69.5688 0001748  51.7770 308.3379 15.08835607 51383,6917.894,95.438,540.9680000000002,538.55,0.0
49416.0,STARLINK-3133,PAYLOAD,2022-10-09 11:22:26,15.08843189,0.0001799,53.2174,68.0824,51.2377,308.8775,-4.6341e-05,-1.026e-05,0.0,0 STARLINK-3133,1 49416U 21104J   22282.47392263 -.00001026  00000-0 -46341-4 0  9997,2 49416  53.2174  68.0824 0001799  51.2377 308.8775 15.08843189 50344,6917.871,95.437,540.98,538.491,0.0
49416.0,STARLINK-3133,PAYLOAD,2022-10-09 16:08:35,15.08847946,0.0001771,53.2175,67.1902,49.4535,310.6611,5.587e-05,6.01e-06,0.0,0 STARLINK-3133,1 49416U 21104J   22282.67263651  .00000601  00000-0  55870-4 0  9990,2 49416  53.2175  67.1902 0001771  49.4535 310.6611 15.08847946 50375,6917.856,95.437,540.946,538.496,0.0
49416.0,STARLINK-3133,PAYLOAD,2022-10-10 11:13:12,15.08851592,0.0001816,53.2173,63.622,51.7483,308.3673,0.0001012,1.323e-05,0.0,0 STARLINK-3133,1 49416U 21104J   22283.46751018  .00001323  00000-0  10120-3 0  9997,2 49416  53.2173  63.6220 0001816  51.7483 308.3673 15.08851592 50492,6917.845,95.437,540.966,538.4540000000002,0.0
49416.0,STARLINK-3133,PAYLOAD,2022-10-10 19:10:09,15.08840819,0.0001798,53.2177,62.1358,49.5483,310.5666,0.00016348,2.315e-05,0.0,0 STARLINK-3133,1 49416U 21104J   22283.79871599  .00002315  00000-0  16348-3 0  9990,2 49416  53.2177  62.1358 0001798  49.5483 310.5666 15.08840819 50549,6917.878000000002,95.438,540.987,538.499,0.0
49416.0,STARLINK-3133,PAYLOAD,2022-10-11 11:04:01,15.08823014,0.0001844,53.217,59.1619,45.4724,314.6419,-0.00015811,-2.802e-05,0.0,0 STARLINK-3133,1 49416U 21104J   22284.46112942 -.00002802  00000-0 -15811-3 0  9992,2 49416  53.2170  59.1619 0001844  45.4724 314.6419 15.08823014 51734,6917.932,95.439,541.073,538.5219999999998,0.0
49416.0,STARLINK-3133,PAYLOAD,2022-10-12 12:30:12,15.08823261,0.0001709,53.2168,54.4036,51.5584,308.5561,-0.00017462,-3.065e-05,0.0,0 STARLINK-3133,1 49416U 21104J   22285.52097425 -.00003065  00000-0 -17462-3 0  9994,2 49416  53.2168  54.4036 0001709  51.5584 308.5561 15.08823261 50805,6917.932,95.439,540.979,538.614,0.0
49416.0,STARLINK-3133,PAYLOAD,2022-10-12 18:51:45,15.08826266,0.0001647,53.2168,53.2137,56.4055,303.7094,-4.2444e-05,-9.63e-06,0.0,0 STARLINK-3133,1 49416U 21104J   22285.78593843 -.00000963  00000-0 -42444-4 0  9990,2 49416  53.2168  53.2137 0001647  56.4055 303.7094 15.08826266 50842,6917.922,95.438,540.927,538.648,0.0
49416.0,STARLINK-3133,PAYLOAD,2022-10-13 04:24:03,15.08832779,0.0002017,53.2181,51.4318,35.0433,325.0692,0.00012807,1.75e-05,0.0,0 STARLINK-3133,1 49416U 21104J   22286.18337340  .00001750  00000-0  12807-3 0  9995,2 49416  53.2181  51.4318 0002017  35.0433 325.0692 15.08832779 51997,6917.901999999999,95.438,541.163,538.372,0.0
49416.0,STARLINK-3133,PAYLOAD,2022-10-13 10:45:35,15.08837127,0.0001893,53.2182,50.2413,39.979,320.1342,0.00032639,4.91e-05,0.0,0 STARLINK-3133,1 49416U 21104J   22286.44832992  .00004910  00000-0  32639-3 0  9993,2 49416  53.2182  50.2413 0001893  39.9790 320.1342 15.08837127 50945,6917.889,95.438,541.064,538.445,0.0
49416.0,STARLINK-3133,PAYLOAD,2022-10-13 15:31:45,15.08835673,0.0001986,53.2179,49.3501,38.5778,321.5355,0.00027471,4.086e-05,0.0,0 STARLINK-3133,1 49416U 21104J   22286.64705680  .00004086  00000-0  27471-3 0  9990,2 49416  53.2179  49.3501 0001986  38.5778 321.5355 15.08835673 50978,6917.894,95.438,541.133,538.385,0.0
49416.0,STARLINK-3133,PAYLOAD,2022-10-14 12:11:46,15.08843465,0.0002319999999999,53.2163,45.483,36.8669,323.2482,0.00014289,1.987e-05,0.0,0 STARLINK-3133,1 49416U 21104J   22287.50817351  .00001987  00000-0  14289-3 0  9995,2 49416  53.2163  45.4830 0002320  36.8669 323.2482 15.08843465 52190,6917.87,95.437,541.34,538.13,0.0
49416.0,STARLINK-3133,PAYLOAD,2022-10-15 12:02:32,15.08853128,0.0001953,53.2179,41.0231,37.7868,322.3261,0.00010437,1.374e-05,0.0,0 STARLINK-3133,1 49416U 21104J   22288.50176477  .00001374  00000-0  10437-3 0  9994,2 49416  53.2179  41.0231 0001953  37.7868 322.3261 15.08853128 51254,6917.84,95.437,541.056,538.354,0.0
49416.0,STARLINK-3133,PAYLOAD,2022-10-15 15:13:18,15.08856995,0.0002029,53.2178,40.4288,36.7269,323.3862,0.00015692,2.211e-05,0.0,0 STARLINK-3133,1 49416U 21104J   22288.63424161  .00002211  00000-0  15692-3 0  9993,2 49416  53.2178  40.4288 0002029  36.7269 323.3862 15.08856995 52363,6917.828,95.436,541.097,538.29,0.0
49416.0,STARLINK-3133,PAYLOAD,2022-10-16 03:56:23,15.08843911,0.0002039,53.217,38.0504,44.3197,315.7958,0.00021792,3.182e-05,0.0,0 STARLINK-3133,1 49416U 21104J   22289.16416582  .00003182  00000-0  21792-3 0  9996,2 49416  53.2170  38.0504 0002039  44.3197 315.7958 15.08843911 52449,6917.868,95.437,541.144,538.323,0.0
49416.0,STARLINK-3133,PAYLOAD,2022-10-16 11:53:20,15.08822578,0.0002045999999999,53.2169,36.5631,38.8886,321.2253,-0.00023664,-4.051e-05,0.0,0 STARLINK-3133,1 49416U 21104J   22289.49537872 -.00004051  00000-0 -23664-3 0  9996,2 49416  53.2169  36.5631 0002046  38.8886 321.2253 15.08822578 52493,6917.934,95.439,541.214,538.383,0.0
49416.0,STARLINK-3133,PAYLOAD,2022-10-16 15:04:06,15.08824625,0.000198,53.2171,35.9684,39.7339,320.3798,-0.00018191,-3.181e-05,0.0,0 STARLINK-3133,1 49416U 21104J   22289.62785872 -.00003181  00000-0 -18191-3 0  9998,2 49416  53.2171  35.9684 0001980  39.7339 320.3798 15.08824625 51427,6917.927,95.439,541.1619999999998,538.423,0.0
49416.0,STARLINK-3133,PAYLOAD,2022-10-17 03:47:11,15.08835783,0.0002008,53.2175,33.5896,37.4995,322.6137,7.3904e-05,8.88e-06,0.0,0 STARLINK-3133,1 49416U 21104J   22290.15777567  .00000888  00000-0  73904-4 0  9993,2 49416  53.2175  33.5896 0002008  37.4995 322.6137 15.08835783 52593,6917.893,95.438,541.1469999999998,538.369,0.0
49416.0,STARLINK-3133,PAYLOAD,2022-10-17 13:19:30,15.08851821,0.0001966999999999,53.2172,31.8054,37.8778,322.2353,0.0013419,0.0002114,0.0,0 STARLINK-3133,1 49416U 21104J   22290.55521732  .00021140  00000-0  13419-2 0  9995,2 49416  53.2172  31.8054 0001967  37.8778 322.2353 15.08851821 51566,6917.844,95.437,541.07,538.349,0.0
49416.0,STARLINK-3133,PAYLOAD,2022-10-17 16:30:16,15.0885469,0.0002034,53.2174,31.2113,36.4266,323.6864,0.0011717,0.00018416,0.0,0 STARLINK-3133,1 49416U 21104J   22290.68769663  .00018416  00000-0  11717-2 0  9997,2 49416  53.2174  31.2113 0002034  36.4266 323.6864 15.08854690 52673,6917.835,95.437,541.1080000000002,538.293,0.0
49416.0,STARLINK-3133,PAYLOAD,2022-10-18 03:37:59,15.0884478,0.0001644,53.2187,29.1299,40.5958,319.5157,0.00070577,0.00010964,0.0,0 STARLINK-3133,1 49416U 21104J   22291.15137749  .00010964  00000-0  70577-3 0  9994,2 49416  53.2187  29.1299 0001644  40.5958 319.5157 15.08844780 52744,6917.866,95.437,540.868,538.5930000000002,0.0
49416.0,STARLINK-3133,PAYLOAD,2022-10-18 09:59:32,15.08823671,0.0002333,53.2184,27.9396,33.9014,326.2127,-0.00023212,-3.979e-05,0.0,0 STARLINK-3133,1 49416U 21104J   22291.41634431 -.00003979  00000-0 -23212-3 0  9997,2 49416  53.2184  27.9396 0002333  33.9014 326.2127 15.08823671 52782,6917.93,95.439,541.409,538.181,0.0
49416.0,STARLINK-3133,PAYLOAD,2022-10-19 13:01:06,15.08846726,0.0002208,53.218,22.8848,34.5892,325.5244,0.00099144,0.00015529,0.0,0 STARLINK-3133,1 49416U 21104J   22292.54243065  .00015529  00000-0  99144-3 0  9990,2 49416  53.2180  22.8848 0002208  34.5892 325.5244 15.08846726 51862,6917.86,95.437,541.252,538.197,0.0
49416.0,STARLINK-3133,PAYLOAD,2022-10-20 12:51:52,15.08853742,0.0002138,53.2178,18.4236,34.8955,325.2177,0.00026366,3.912e-05,0.0,0 STARLINK-3133,1 49416U 21104J   22293.53602168  .00003912  00000-0  26366-3 0  9992,2 49416  53.2178  18.4236 0002138  34.8955 325.2177 15.08853742 53103,6917.8380000000025,95.437,541.182,538.224,0.0
49416.0,STARLINK-3133,PAYLOAD,2022-10-21 09:31:53,15.08842461,0.000216,53.2179,14.5591,34.3137,325.7995,5.9286e-06,-1.94e-06,0.0,0 STARLINK-3133,1 49416U 21104J   22294.39714363 -.00000194  00000-0  59286-5 0  9997,2 49416  53.2179  14.5591 0002160  34.3137 325.7995 15.08842461 53230,6917.873000000001,95.437,541.232,538.244,0.0
49416.0,STARLINK-3133,PAYLOAD,2022-10-21 14:18:02,15.08839255,0.0002195,53.2177,13.6672,34.1962,325.9171,-3.154e-05,-7.9e-06,0.0,0 STARLINK-3133,1 49416U 21104J   22294.59586455 -.00000790  00000-0 -31540-4 0  9993,2 49416  53.2177  13.6672 0002195  34.1962 325.9171 15.08839255 52177,6917.8830000000025,95.438,541.266,538.229,0.0
49416.0,STARLINK-3133,PAYLOAD,2022-10-22 12:33:26,15.08841477,0.0002316999999999,53.2187,9.5033,33.5897,326.5242,0.00015379,2.1600000000000007e-05,0.0,0 STARLINK-3133,1 49416U 21104J   22295.52322479  .00002160  00000-0  15379-3 0  9993,2 49416  53.2187   9.5033 0002317  33.5897 326.5242 15.08841477 53401,6917.876,95.437,541.344,538.138,0.0
